[{"OBJECT_NAME":"STARLINK-30956","OBJECT_ID":"2023-186J","EPOCH":"2026-03-09T22:30:22.489920","MEAN_MOTION":15.26738843,"ECCENTRICITY":0.00015926,"INCLINATION":43.0024,"RA_OF_ASC_NODE":39.5665,"ARG_OF_PERICENTER":265.8868,"MEAN_ANOMALY":94.1802,"EPHEMERIS_TYPE":0,"CLASSIFICATION_TYPE":"U","NORAD_CAT_ID":58481,"ELEMENT_SET_NO":999,"REV_AT_EPOCH":12619,"BSTAR":8.7183935e-5,"MEAN_MOTION_DOT":2.079e-5,"MEAN_MOTION_DDOT":0},{"OBJECT_NAME":"CZ-6A DEB","OBJECT_ID":"2024-140RH","EPOCH":"2026-03-09T12:32:13.567200","MEAN_MOTION":15.23024459,"ECCENTRICITY":0.01073082,"INCLINATION":88.6757,"RA_OF_ASC_NODE":253.1302,"ARG_OF_PERICENTER":74.0491,"MEAN_ANOMALY":287.2547,"EPHEMERIS_TYPE":0,"CLASSIFICATION_TYPE":"U","NORAD_CAT_ID":61163,"ELEMENT_SET_NO":999,"REV_AT_EPOCH":8457,"BSTAR":0.0019108924,"MEAN_MOTION_DOT":0.00053105,"MEAN_MOTION_DDOT":0}]
